[Satellite]
VERSION=1.1
NAME=YAOGAN 24
NICKNAME=YAOGAN 24
TLE1=1 40310U 14072A   17186.23359007  .00000037  00000-0  12568-4 0  9990
TLE2=2 40310  98.0046 306.3409 0017571  16.4017 343.7766 14.77121348141394
